IRIDIUM 106             
1 41917U 17003A   25266.85882221  .00000035  00000+0  53912-5 0  9992
2 41917  86.4031 199.7822 0002560  76.7059 283.4422 14.34218098455033
IRIDIUM 103             
1 41918U 17003B   25266.91590477  .00000185  00000+0  58959-4 0  9990
2 41918  86.4030 199.6591 0002540  93.2126 266.9361 14.34219080455065
IRIDIUM 109             
1 41919U 17003C   25266.22456291 -.00000081  00000+0 -36011-4 0  9992
2 41919  86.4031 200.0027 0002015  87.4294 272.7132 14.34216920454932
IRIDIUM 102             
1 41920U 17003D   25266.89053089  .00000466  00000+0  15943-3 0  9990
2 41920  86.4029 199.6539 0002076  83.1224 277.0208 14.34221300455116
IRIDIUM 105             
1 41921U 17003E   25266.79160943  .00000518  00000+0  17804-3 0  9994
2 41921  86.4044 168.2100 0002233  86.7241 273.4210 14.34212214456953
IRIDIUM 104             
1 41922U 17003F   25266.90321941  .00000186  00000+0  59295-4 0  9997
2 41922  86.4031 199.6872 0002147  94.1823 265.9618 14.34218796455102
IRIDIUM 114             
1 41923U 17003G   25266.90956301  .00000053  00000+0  11844-4 0  9993
2 41923  86.4030 199.6687 0002364  87.5880 272.5586 14.34218105455085
IRIDIUM 108             
1 41924U 17003H   25266.24016670  .00000087  00000+0  24116-4 0  9990
2 41924  86.4038 168.3351 0002097  79.0256 281.1175 14.34218259456846
